NORAD_CAT_ID,OBJECT_NAME,OBJECT_TYPE,EPOCH,MEAN_MOTION,ECCENTRICITY,INCLINATION,RA_OF_ASC_NODE,ARG_OF_PERICENTER,MEAN_ANOMALY,BSTAR,MEAN_MOTION_DOT,MEAN_MOTION_DDOT,TLE_LINE0,TLE_LINE1,TLE_LINE2,SEMIMAJOR_AXIS,PERIOD,APOGEE,PERIGEE,DECAYED
51138.0,STARLINK-3177,PAYLOAD,2022-04-19 14:00:01,15.18566098,0.0001843,53.217,194.4451,44.8171,95.7342,-0.032687,-0.00635631,0.0,0 STARLINK-3177,1 51138U 22005AL  22109.58334491 -.00635631  00000-0 -32687-1 0  9991,2 51138  53.2170 194.4451 0001843  44.8171  95.7342 15.18566098  3627,6888.31,94.826,511.445,508.906,0.0
51138.0,STARLINK-3177,PAYLOAD,2022-04-20 06:00:00,15.17603451,0.0002018,53.2176,191.4057,37.5052,148.4877,-0.038122,-0.0072276,0.0,0 STARLINK-3177,1 51138U 22005AL  22110.25001157 -.00722760  00000-0 -38122-1 0  9997,2 51138  53.2176 191.4057 0002018  37.5052 148.4877 15.17603451 15563,6891.223000000001,94.886,514.479,511.697,0.0
51138.0,STARLINK-3177,PAYLOAD,2022-04-20 14:00:01,15.1709255,0.0002218,53.2175,189.891,33.1334,174.6738,-0.03863,-0.00721776,0.0,0 STARLINK-3177,1 51138U 22005AL  22110.58334491 -.00721776  00000-0 -38630-1 0  9993,2 51138  53.2175 189.8910 0002218  33.1334 174.6738 15.17092550  3643,6892.77,94.918,516.164,513.106,0.0
51138.0,STARLINK-3177,PAYLOAD,2022-04-20 22:00:00,15.16584629,0.0001815,53.2174,188.3743,43.5834,185.4258,-0.039402,-0.00725226,0.0,0 STARLINK-3177,1 51138U 22005AL  22110.91667824 -.00725226  00000-0 -39402-1 0  9991,2 51138  53.2174 188.3743 0001815  43.5834 185.4258 15.16584629  3630,6894.309,94.95,517.425,514.923,0.0
51138.0,STARLINK-3177,PAYLOAD,2022-04-21 06:00:00,15.16073559,0.000205,53.2174,186.8598,35.7649,213.834,-0.039829,-0.00722637,0.0,0 STARLINK-3177,1 51138U 22005AL  22111.25001157 -.00722637  00000-0 -39829-1 0  9996,2 51138  53.2174 186.8598 0002050  35.7649 213.8340 15.16073559 15715,6895.858,94.982,519.137,516.31,0.0
51138.0,STARLINK-3177,PAYLOAD,2022-04-21 14:00:01,15.15439204,0.0001857,53.2168,185.3497,47.2826,222.3567,-0.030532,-0.00548229,0.0,0 STARLINK-3177,1 51138U 22005AL  22111.58334491 -.00548229  00000-0 -30532-1 0  9997,2 51138  53.2168 185.3497 0001857  47.2826 222.3567 15.15439204  3613,6897.781999999997,95.022,520.928,518.367,0.0
51138.0,STARLINK-3177,PAYLOAD,2022-04-21 22:00:00,15.15054998,0.0001706999999999,53.2175,183.8355,43.9229,245.0156,-0.041205,-0.00725896,0.0,0 STARLINK-3177,1 51138U 22005AL  22111.91667824 -.00725896  00000-0 -41205-1 0  9999,2 51138  53.2175 183.8355 0001707  43.9229 245.0156 15.15054998  3632,6898.949000000001,95.046,521.991,519.636,0.0
51138.0,STARLINK-3177,PAYLOAD,2022-04-22 14:00:01,15.14032653,0.0001913,53.2175,180.817,36.2617,289.5656,-0.042141,-0.00721492,0.0,0 STARLINK-3177,1 51138U 22005AL  22112.58334491 -.00721492  00000-0 -42141-1 0  9992,2 51138  53.2175 180.8170 0001913  36.2617 289.5656 15.14032653 15914,6902.054,95.11,525.239,522.599,0.0
51138.0,STARLINK-3177,PAYLOAD,2022-04-23 14:00:01,15.12387423,0.0001869,53.2168,176.2973,44.776,331.8566,-0.034783,-0.00571361,0.0,0 STARLINK-3177,1 51138U 22005AL  22113.58334491 -.00571361  00000-0 -34783-1 0  9994,2 51138  53.2168 176.2973 0001869  44.7760 331.8566 15.12387423 16063,6907.059,95.214,530.214,527.633,0.0
51138.0,STARLINK-3177,PAYLOAD,2022-04-23 22:00:00,15.11993505,0.000171,53.2175,174.7898,38.4507,353.8019,-0.044755,-0.0072334,0.0,0 STARLINK-3177,1 51138U 22005AL  22113.91667824 -.00723340  00000-0 -44755-1 0  9996,2 51138  53.2175 174.7898 0001710  38.4507 353.8019 15.11993505 16110,6908.2580000000025,95.239,531.304,528.942,0.0
51138.0,STARLINK-3177,PAYLOAD,2022-04-24 14:00:01,15.10841499,0.0001966,53.2169,171.787,32.9675,28.889,-0.034143,-0.00539212,0.0,0 STARLINK-3177,1 51138U 22005AL  22114.58334491 -.00539212  00000-0 -34143-1 0  9994,2 51138  53.2169 171.7870 0001966  32.9675  28.8890 15.10841499  3607,6911.769,95.311,534.993,532.276,0.0
51138.0,STARLINK-3177,PAYLOAD,2022-04-25 06:00:00,15.09953965,0.000196,53.2176,168.7833,34.9292,53.9427,-0.04739,-0.00723652,0.0,0 STARLINK-3177,1 51138U 22005AL  22115.25001157 -.00723652  00000-0 -47390-1 0  9990,2 51138  53.2176 168.7833 0001960  34.9292  53.9427 15.09953965 16329,6914.478,95.367,537.698,534.987,0.0
51138.0,STARLINK-3177,PAYLOAD,2022-04-25 14:00:01,15.09308141,0.0002006,53.2169,167.2875,34.1236,67.4335,-0.033612,-0.00510506,0.0,0 STARLINK-3177,1 51138U 22005AL  22115.58334491 -.00510506  00000-0 -33612-1 0  9990,2 51138  53.2169 167.2875 0002006  34.1236  67.4335 15.09308141  3608,6916.45,95.408,539.702,536.927,0.0
51138.0,STARLINK-3177,PAYLOAD,2022-04-25 22:00:00,15.0884711,0.0001785,53.2175,165.787,39.4885,74.0244,-0.0010844,-0.00017508,0.0,0 STARLINK-3177,1 51138U 22005AL  22115.91667824 -.00017508  00000-0 -10844-2 0  9993,2 51138  53.2175 165.7870 0001785  39.4885  74.0244 15.08847110 16424,6917.859,95.437,540.9580000000002,538.489,0.0
51138.0,STARLINK-3177,PAYLOAD,2022-04-26 14:00:01,15.08846936,0.0002045,53.2147,162.8033,38.5203,98.3928,0.0024699,0.00039248,0.0,0 STARLINK-3177,1 51138U 22005AL  22116.58335648  .00039248  00000-0  24699-2 0  9999,2 51138  53.2147 162.8033 0002045  38.5203  98.3928 15.08846936 16520,6917.859,95.437,541.139,538.309,0.0
51138.0,STARLINK-3177,PAYLOAD,2022-04-26 22:00:00,15.08846245,0.0001709,53.2147,161.3052,38.4988,109.9789,-0.0046547,-0.00073624,0.0,0 STARLINK-3177,1 51138U 22005AL  22116.91667824 -.00073624  00000-0 -46547-2 0  9994,2 51138  53.2147 161.3052 0001709  38.4988 109.9789 15.08846245 16572,6917.861,95.437,540.909,538.544,0.0
51138.0,STARLINK-3177,PAYLOAD,2022-04-27 14:00:01,15.08774456,0.0001925,53.2141,158.3142,34.5146,137.1463,0.0057631,0.00092472,0.0,0 STARLINK-3177,1 51138U 22005AL  22117.58335648  .00092472  00000-0  57631-2 0  9990,2 51138  53.2141 158.3142 0001925  34.5146 137.1463 15.08774456 16672,6918.081,95.442,541.2769999999998,538.614,0.0
51138.0,STARLINK-3177,PAYLOAD,2022-04-28 06:00:00,15.08863257,0.0001847,53.2139,155.3204,41.9275,152.8253,-0.0011766,-0.00018977,0.0,0 STARLINK-3177,1 51138U 22005AL  22118.25001157 -.00018977  00000-0 -11766-2 0  9999,2 51138  53.2139 155.3204 0001847  41.9275 152.8253 15.08863257 16773,6917.809,95.436,540.952,538.3969999999998,0.0
51138.0,STARLINK-3177,PAYLOAD,2022-04-28 14:00:01,15.08851407,0.0002032,53.2134,153.8248,38.3133,168.0569,0.001137,0.00017859,0.0,0 STARLINK-3177,1 51138U 22005AL  22118.58334491  .00017859  00000-0  11370-2 0  9992,2 51138  53.2134 153.8248 0002032  38.3133 168.0569 15.08851407  3598,6917.846,95.437,541.116,538.305,0.0
51138.0,STARLINK-3177,PAYLOAD,2022-04-29 06:00:00,15.08851577,0.0002091,53.2133,150.8309,46.5897,183.001,-0.0025031,-0.00039918,0.0,0 STARLINK-3177,1 51138U 22005AL  22119.25001157 -.00039918  00000-0 -25031-2 0  9998,2 51138  53.2133 150.8309 0002091  46.5897 183.0010 15.08851577 16922,6917.845,95.437,541.1569999999998,538.263,0.0
51138.0,STARLINK-3177,PAYLOAD,2022-04-29 14:00:01,15.08815337,0.0002233,53.2129,149.3353,43.3197,197.8576,0.0021792,0.00034542,0.0,0 STARLINK-3177,1 51138U 22005AL  22119.58334491  .00034542  00000-0  21792-2 0  9990,2 51138  53.2129 149.3353 0002233  43.3197 197.8576 15.08815337  3633,6917.956,95.439,541.366,538.276,0.0
51138.0,STARLINK-3177,PAYLOAD,2022-04-29 22:00:00,15.08817708,0.0002072,53.213,147.8368,47.4452,205.323,0.0024589,0.00039039,0.0,0 STARLINK-3177,1 51138U 22005AL  22119.91667824  .00039039  00000-0  24589-2 0  9999,2 51138  53.2130 147.8368 0002072  47.4452 205.3230 15.08817708 17028,6917.949000000001,95.439,541.247,538.38,0.0
51138.0,STARLINK-3177,PAYLOAD,2022-04-30 12:00:00,15.08794654,0.0002262,53.2132,145.2199,42.0571,140.9915,0.0033143,0.0005279,0.0,0 STARLINK-3177,1 51138U 22005AL  22120.50001157  .00052790  00000-0  33143-2 0  9992,2 51138  53.2132 145.2199 0002262  42.0571 140.9915 15.08794654 17116,6918.019,95.44,541.4490000000002,538.319,0.0
51138.0,STARLINK-3177,PAYLOAD,2022-04-30 14:00:01,15.08816505,0.000224,53.2129,144.8455,41.9108,234.0249,0.0015074,0.00023769,0.0,0 STARLINK-3177,1 51138U 22005AL  22120.58334491  .00023769  00000-0  15074-2 0  9997,2 51138  53.2129 144.8455 0002240  41.9108 234.0249 15.08816505  3594,6917.9519999999975,95.439,541.367,538.268,0.0
51138.0,STARLINK-3177,PAYLOAD,2022-04-30 22:00:00,15.08805597,0.0002098,53.2132,143.3471,46.5685,240.9526,0.0030899,0.00049185,0.0,0 STARLINK-3177,1 51138U 22005AL  22120.91667824  .00049185  00000-0  30899-2 0  9995,2 51138  53.2132 143.3471 0002098  46.5685 240.9526 15.08805597  3595,6917.986,95.44,541.302,538.399,0.0
51138.0,STARLINK-3177,PAYLOAD,2022-05-01 06:00:00,15.08846407,0.0002245,53.2133,141.8518,45.9369,253.1569,-0.0013935,-0.00022402,0.0,0 STARLINK-3177,1 51138U 22005AL  22121.25001157 -.00022402  00000-0 -13935-2 0  9991,2 51138  53.2133 141.8518 0002245  45.9369 253.1569 15.08846407 17220,6917.861,95.437,541.279,538.173,0.0
51138.0,STARLINK-3177,PAYLOAD,2022-05-01 14:00:01,15.08838064,0.0002321,53.2132,140.3558,42.5827,268.1024,0.00060395,9.336e-05,0.0,0 STARLINK-3177,1 51138U 22005AL  22121.58334491  .00009336  00000-0  60395-3 0  9999,2 51138  53.2132 140.3558 0002321  42.5827 268.1024 15.08838064  3603,6917.886,95.438,541.357,538.146,0.0
51138.0,STARLINK-3177,PAYLOAD,2022-05-01 22:00:01,15.08829904,0.0002125,53.2136,138.8574,46.9797,275.3755,0.00025835,3.825e-05,0.0,0 STARLINK-3177,1 51138U 22005AL  22121.91668981  .00003825  00000-0  25835-3 0  9997,2 51138  53.2136 138.8574 0002125  46.9797 275.3755 15.08829904 17321,6917.911,95.438,541.246,538.306,0.0
51138.0,STARLINK-3177,PAYLOAD,2022-05-02 14:00:01,15.08828944,0.0002304,53.2135,135.8661,41.8878,303.5636,-0.00012097,-2.213e-05,0.0,0 STARLINK-3177,1 51138U 22005AL  22122.58334491 -.00002213  00000-0 -12097-3 0  9995,2 51138  53.2135 135.8661 0002304  41.8878 303.5636 15.08828944  3631,6917.9140000000025,95.438,541.373,538.185,0.0
